NORAD_CAT_ID,OBJECT_NAME,OBJECT_TYPE,EPOCH,MEAN_MOTION,ECCENTRICITY,INCLINATION,RA_OF_ASC_NODE,ARG_OF_PERICENTER,MEAN_ANOMALY,BSTAR,MEAN_MOTION_DOT,MEAN_MOTION_DDOT,TLE_LINE0,TLE_LINE1,TLE_LINE2,SEMIMAJOR_AXIS,PERIOD,APOGEE,PERIGEE,DECAYED
55310.0,STARLINK-5309,PAYLOAD,2024-04-10 14:29:15,14.98357715,0.0002936,69.9988,324.6635,270.9518,89.1304,0.00018477,2.114e-05,0.0,0 STARLINK-5309,1 55310U 23010AT  24101.60364836  .00002114  00000-0  18477-3 0  9992,2 55310  69.9988 324.6635 0002936 270.9518  89.1304 14.98357715 69208,6950.107,96.105,574.013,569.932,0.0
55310.0,STARLINK-5309,PAYLOAD,2024-04-10 20:53:49,14.98333273,0.000314,69.9986,323.99,265.8997,94.1804,-9.0687e-05,-1.175e-05,0.0,0 STARLINK-5309,1 55310U 23010AT  24101.87071093 -.00001175  00000-0 -90687-4 0  9993,2 55310  69.9986 323.9900 0003140 265.8997  94.1804 14.98333273 68927,6950.183,96.107,574.23,569.865,0.0
55310.0,STARLINK-5309,PAYLOAD,2024-04-10 22:29:57,14.98331928,0.0003267,69.9982,323.8215,266.0356,94.0429,-0.00011151,-1.423e-05,0.0,0 STARLINK-5309,1 55310U 23010AT  24101.93747177 -.00001423  00000-0 -11151-3 0  9997,2 55310  69.9982 323.8215 0003267 266.0356  94.0429 14.98331928 69257,6950.187,96.107,574.323,569.781,0.0
55310.0,STARLINK-5309,PAYLOAD,2024-04-11 08:06:46,14.98324346,0.0003312,69.9979,322.8111,266.8002,93.2778,-0.0002012,-2.493e-05,0.0,0 STARLINK-5309,1 55310U 23010AT  24102.33803821 -.00002493  00000-0 -20120-3 0  9995,2 55310  69.9979 322.8111 0003312 266.8002  93.2778 14.98324346 68998,6950.21,96.107,574.377,569.773,0.0
55310.0,STARLINK-5309,PAYLOAD,2024-04-11 20:55:51,14.98332789,0.0003098,69.9982,321.4655,269.1799,90.9005,-0.00040847,-4.964e-05,0.0,0 STARLINK-5309,1 55310U 23010AT  24102.87211931 -.00004964  00000-0 -40847-3 0  9992,2 55310  69.9982 321.4655 0003098 269.1799  90.9005 14.98332789 69392,6950.184,96.107,574.202,569.896,0.0
55310.0,STARLINK-5309,PAYLOAD,2024-04-12 00:08:07,14.98329983,0.000289,69.9989,321.1293,271.9351,88.1477,-0.00030515,-3.732e-05,0.0,0 STARLINK-5309,1 55310U 23010AT  24103.00563789 -.00003732  00000-0 -30515-3 0  9992,2 55310  69.9989 321.1293 0002890 271.9351  88.1477 14.98329983 69099,6950.193,96.107,574.067,570.049,0.0
55310.0,STARLINK-5309,PAYLOAD,2024-04-12 14:33:19,14.98339912,0.0002955,69.9985,319.6144,271.7143,88.3677,-0.0003704,-4.511e-05,0.0,0 STARLINK-5309,1 55310U 23010AT  24103.60647363 -.00004511  00000-0 -37040-3 0  9995,2 55310  69.9985 319.6144 0002955 271.7143  88.3677 14.98339912 69504,6950.162,96.106,574.081,569.973,0.0
55310.0,STARLINK-5309,PAYLOAD,2024-04-12 22:33:59,14.98315453,0.0003027,69.9986,318.7717,270.3069,89.7743,0.00011633,1.295e-05,0.0,0 STARLINK-5309,1 55310U 23010AT  24103.94027758  .00001295  00000-0  11633-3 0  9996,2 55310  69.9986 318.7717 0003027 270.3069  89.7743 14.98315453 69552,6950.238,96.108,574.207,569.999,0.0
55310.0,STARLINK-5309,PAYLOAD,2024-04-13 00:10:08,14.98316006,0.0003025,69.9987,318.6034,270.3294,89.7518,0.00012002,1.339e-05,0.0,0 STARLINK-5309,1 55310U 23010AT  24104.00703779  .00001339  00000-0  12002-3 0  9998,2 55310  69.9987 318.6034 0003025 270.3294  89.7518 14.98316006 69243,6950.236,96.108,574.204,569.999,0.0
55310.0,STARLINK-5309,PAYLOAD,2024-04-13 14:35:20,14.9832149,0.0003048,69.9987,317.0876,269.9596,90.1214,0.00015299,1.732e-05,0.0,0 STARLINK-5309,1 55310U 23010AT  24104.60787785  .00001732  00000-0  15299-3 0  9991,2 55310  69.9987 317.0876 0003048 269.9596  90.1214 14.98321490 69651,6950.219,96.108,574.203,569.966,0.0
55310.0,STARLINK-5309,PAYLOAD,2024-04-13 20:59:52,14.9832566,0.0003088,69.9986,316.4146,270.6802,89.4003,0.00014041,1.583e-05,0.0,0 STARLINK-5309,1 55310U 23010AT  24104.87491703  .00001583  00000-0  14041-3 0  9990,2 55310  69.9986 316.4146 0003088 270.6802  89.4003 14.98325660 69375,6950.206,96.107,574.218,569.925,0.0
55310.0,STARLINK-5309,PAYLOAD,2024-04-14 21:01:53,14.98329607,0.0002908,69.9989,313.8901,270.6391,89.4435,7.5485e-05,8.08e-06,0.0,0 STARLINK-5309,1 55310U 23010AT  24105.87631845  .00000808  00000-0  75485-4 0  9993,2 55310  69.9989 313.8901 0002908 270.6391  89.4435 14.98329607 69522,6950.194,96.107,574.08,570.038,0.0
55310.0,STARLINK-5309,PAYLOAD,2024-04-15 14:39:22,14.98332494,0.0002723,69.9993,312.0393,263.1939,96.891,8.6513e-06,1e-07,0.0,0 STARLINK-5309,1 55310U 23010AT  24106.61067753  .00000010  00000-0  86513-5 0  9997,2 55310  69.9993 312.0393 0002723 263.1939  96.8910 14.98332494 69958,6950.185,96.107,573.943,570.158,0.0
55310.0,STARLINK-5309,PAYLOAD,2024-04-15 21:03:54,14.98332443,0.0002728,69.9992,311.3659,263.2029,96.8819,8.0447e-06,3e-08,0.0,0 STARLINK-5309,1 55310U 23010AT  24106.87771716  .00000003  00000-0  80447-5 0  9998,2 55310  69.9992 311.3659 0002728 263.2029  96.8819 14.98332443 69671,6950.185,96.107,573.946,570.154,0.0
55310.0,STARLINK-5309,PAYLOAD,2024-04-16 14:41:23,14.98333057,0.0002825,69.999,309.5127,269.1766,90.9069,1.6971e-05,1.1e-06,0.0,0 STARLINK-5309,1 55310U 23010AT  24107.61207560  .00000110  00000-0  16971-4 0  9991,2 55310  69.9990 309.5127 0002825 269.1766  90.9069 14.98333057 70103,6950.183,96.107,574.012,570.085,0.0
55310.0,STARLINK-5309,PAYLOAD,2024-04-16 21:05:55,14.98332757,0.0002841,69.9988,308.8393,269.1797,90.9036,1.2661e-05,5.8e-07,0.0,0 STARLINK-5309,1 55310U 23010AT  24107.87911548  .00000058  00000-0  12661-4 0  9990,2 55310  69.9988 308.8393 0002841 269.1797  90.9036 14.98332757 69826,6950.184,96.107,574.024,570.075,0.0
55310.0,STARLINK-5309,PAYLOAD,2024-04-17 14:43:25,14.98323257,0.0002801,69.9985,306.9878,268.3653,91.7185,-5.9039e-05,-7.97e-06,0.0,0 STARLINK-5309,1 55310U 23010AT  24108.61348387 -.00000797  00000-0 -59039-4 0  9990,2 55310  69.9985 306.9878 0002801 268.3653  91.7185 14.98323257 70256,6950.214,96.107,574.025,570.132,0.0
55310.0,STARLINK-5309,PAYLOAD,2024-04-17 19:31:49,14.9832284,0.0002838,69.9987,306.483,264.3524,95.7312,-8.3752e-05,-1.092e-05,0.0,0 STARLINK-5309,1 55310U 23010AT  24108.81376537 -.00001092  00000-0 -83752-4 0  9998,2 55310  69.9987 306.4830 0002838 264.3524  95.7312 14.98322840 69963,6950.215,96.107,574.053,570.108,0.0
55310.0,STARLINK-5309,PAYLOAD,2024-04-17 21:07:57,14.98320912,0.0002964,69.9986,306.3149,269.1616,90.9203,-9.955e-05,-1.28e-05,0.0,0 STARLINK-5309,1 55310U 23010AT  24108.88052764 -.00001280  00000-0 -99550-4 0  9990,2 55310  69.9986 306.3149 0002964 269.1616  90.9203 14.98320912 70291,6950.221,96.108,574.146,570.026,0.0
55310.0,STARLINK-5309,PAYLOAD,2024-04-18 13:09:13,14.98366681,0.0002896,69.9984,304.6316,278.1794,81.9036,0.00039527,4.631e-05,0.0,0 STARLINK-5309,1 55310U 23010AT  24109.54807796  .00004631  00000-0  39527-3 0  9995,2 55310  69.9984 304.6316 0002896 278.1794  81.9036 14.98366681 70070,6950.079,96.105,573.957,569.932,0.0
55310.0,STARLINK-5309,PAYLOAD,2024-04-18 21:09:58,14.98315644,0.0002773,69.9992,303.7913,256.2387,103.8464,-0.00018128,-2.254e-05,0.0,0 STARLINK-5309,1 55310U 23010AT  24109.88192150 -.00002254  00000-0 -18128-3 0  9998,2 55310  69.9992 303.7913 0002773 256.2387 103.8464 14.98315644 70129,6950.237,96.108,574.03,570.175,0.0
55310.0,STARLINK-5309,PAYLOAD,2024-04-18 22:46:06,14.98315781,0.0002805,69.9991,303.6226,262.6715,97.4125,-0.00017761,-2.211e-05,0.0,0 STARLINK-5309,1 55310U 23010AT  24109.94868207 -.00002211  00000-0 -17761-3 0  9993,2 55310  69.9991 303.6226 0002805 262.6715  97.4125 14.98315781 70456,6950.237,96.108,574.051,570.152,0.0
55310.0,STARLINK-5309,PAYLOAD,2024-04-19 14:47:26,14.98319037,0.0003216,69.9982,301.9382,269.3269,90.7521,-1.9712e-05,-3.28e-06,0.0,0 STARLINK-5309,1 55310U 23010AT  24110.61627929 -.00000328  00000-0 -19712-4 0  9999,2 55310  69.9982 301.9382 0003216 269.3269  90.7521 14.98319037 70550,6950.227,96.108,574.327,569.857,0.0
55310.0,STARLINK-5309,PAYLOAD,2024-04-19 19:35:50,14.98321646,0.0003107,69.9981,301.4325,268.8901,91.1902,1.4728e-05,8.3e-07,0.0,0 STARLINK-5309,1 55310U 23010AT  24110.81655794  .00000083  00000-0  14728-4 0  9990,2 55310  69.9981 301.4325 0003107 268.8901  91.1902 14.98321646 70262,6950.219,96.108,574.243,569.924,0.0
55310.0,STARLINK-5309,PAYLOAD,2024-04-19 21:11:58,14.98327749,0.0002909,69.9985,301.264,269.4622,90.6203,8.393e-05,9.09e-06,0.0,0 STARLINK-5309,1 55310U 23010AT  24110.88331210  .00000909  00000-0  83930-4 0  9999,2 55310  69.9985 301.2640 0002909 269.4622  90.6203 14.98327749 70594,6950.2,96.107,574.087,570.043,0.0
55310.0,STARLINK-5309,PAYLOAD,2024-04-19 22:48:06,14.98328642,0.0002854,69.9987,301.0962,266.5115,93.5718,9.9609e-05,1.096e-05,0.0,0 STARLINK-5309,1 55310U 23010AT  24110.95007103  .00001096  00000-0  99609-4 0  9996,2 55310  69.9987 301.0962 0002854 266.5115  93.5718 14.98328642 70287,6950.197,96.107,574.046,570.079,0.0
55310.0,STARLINK-5309,PAYLOAD,2024-04-20 14:49:26,14.9831518,0.0002756,69.9988,299.4126,265.6697,94.4147,0.00020184,2.315e-05,0.0,0 STARLINK-5309,1 55310U 23010AT  24111.61767270  .00002315  00000-0  20184-3 0  9994,2 55310  69.9988 299.4126 0002756 265.6697  94.4147 14.98315180 70702,6950.239,96.108,574.019,570.188,0.0
55310.0,STARLINK-5309,PAYLOAD,2024-04-20 21:13:59,14.98315054,0.0002664,69.9991,298.7388,269.4029,90.6825,0.00022586,2.602e-05,0.0,0 STARLINK-5309,1 55310U 23010AT  24111.88471525  .00002602  00000-0  22586-3 0  9995,2 55310  69.9991 298.7388 0002664 269.4029  90.6825 14.98315054 70742,6950.239,96.108,573.956,570.253,0.0
55310.0,STARLINK-5309,PAYLOAD,2024-04-20 22:50:07,14.98317174,0.000253,69.9995,298.5715,263.0548,97.0324,0.00020898,2.401e-05,0.0,0 STARLINK-5309,1 55310U 23010AT  24111.95147467  .00002401  00000-0  20898-3 0  9999,2 55310  69.9995 298.5715 0002530 263.0548  97.0324 14.98317174 70432,6950.233,96.108,573.856,570.339,0.0
55310.0,STARLINK-5309,PAYLOAD,2024-04-21 13:15:20,14.98327818,0.0002596,69.9992,297.0562,259.4178,100.6689,5.6339e-05,5.79e-06,0.0,0 STARLINK-5309,1 55310U 23010AT  24112.55231498  .00000579  00000-0  56339-4 0  9998,2 55310  69.9992 297.0562 0002596 259.4178 100.6689 14.98327818 70849,6950.2,96.107,573.869,570.26,0.0
